UNKNOWN                 
1 84188U          26066.33783007  .00195299  00000+0  99280-1 0  9993
2 84188  64.8650 180.5777 3508374   8.8328 356.0567  8.04822229 47914
UNKNOWN                 
1 84232U          26072.31750058  .00041552  00000+0  28525-1 0  9994
2 84232  20.3206 221.6515 6531594 159.2529 249.4086  3.22160441107589
UNKNOWN                 
1 84236U          26069.06002904  .00000953  00000+0  64621-2 0  9994
2 84236   9.2919 296.2005 6890329 171.4122 213.1207  2.62672294116277
UNKNOWN                 
1 84292U          26072.15971793  .00003900  00000+0  24343-2 0  9993
2 84292  23.8366  35.0600 4552969  97.8781 314.4395  6.22307861233696
UNKNOWN                 
1 84406U          26070.18185096  .00000797  00000+0  43750-2 0  9998
2 84406 101.7202 220.4815 0050222 220.6149 320.5627 12.67497465 60499
UNKNOWN                 
1 84407U          26072.30439338  .00000308  00000+0  13714-1 0  9990
2 84407  19.4457 295.8578 7212498 110.4352 335.5464  2.05799378 77732
UNKNOWN                 
1 84575U          26072.34130450 -.00000117  00000+0  13512-2 0  9999
2 84575  18.0153 128.1545 7117532  77.9373 347.6101  2.19863842 67454
UNKNOWN                 
1 84932U          26072.52872476  .00000595  00000+0  55822-2 0  9996
2 84932   2.0521 189.4689 6575943 159.1424 112.1292  3.00149408134508
UNKNOWN                 
1 85004U          26071.75865920  .00001355  00000+0  42680-3 0  9991
2 85004  98.4345  46.5379 0045534 251.5764 229.5772 14.41364565643867
UNKNOWN                 
1 85010U          26070.10361161  .00001121  00000+0  12107-2 0  9995
2 85010  99.2472 294.3168 0026932  21.2025 130.9894 13.75268917616068
UNKNOWN                 
1 85015U          26069.13325454  .00000800  00000+0  16375-3 0  9991
2 85015  74.0470 230.9475 0014237 119.5179 240.7409 14.62416904655383
UNKNOWN                 
1 85023U          26072.58251475  .00031529  00000+0  41126-2 0  9997
2 85023  99.8406 112.9857 0002039 106.8802  45.9047 14.80462334642240
